{"type":"FeatureCollection","features":[{"type":"Feature","geometry":{"type":"Polygon","coordinates":[[[-2.66542,51.53097],[-2.66037,51.52773],[-2.65813,51.52669],[-2.65361,51.52307],[-2.6514,51.5207],[-2.65167,51.51993],[-2.65272,51.51965],[-2.65276,51.51924],[-2.65374,51.51861],[-2.6532,51.51609],[-2.65449,51.51496],[-2.65396,51.51448],[-2.65449,51.51372],[-2.65151,51.51284],[-2.64716,51.51217],[-2.63851,51.51206],[-2.62613,51.51473],[-2.62262,51.51449],[-2.6209,51.51484],[-2.61113,51.51345],[-2.60244,51.51378],[-2.59539,51.51529],[-2.59427,51.51584],[-2.58799,51.51706],[-2.58099,51.51741],[-2.582,51.51463],[-2.58309,51.51294],[-2.58511,51.51248],[-2.58585,51.51267],[-2.58923,51.51154],[-2.59122,51.50968],[-2.5905,51.50841],[-2.58802,51.50773],[-2.58855,51.50561],[-2.58786,51.50494],[-2.58769,51.50345],[-2.58815,51.50123],[-2.58524,51.50116],[-2.58563,51.50184],[-2.58452,51.50264],[-2.58172,51.50119],[-2.57987,51.50068],[-2.5781,51.50094],[-2.57548,51.50075],[-2.57316,51.50041],[-2.57133,51.49962],[-2.56993,51.49925],[-2.56909,51.49955],[-2.56735,51.49875],[-2.56597,51.49829],[-2.56507,51.49758],[-2.56534,51.49618],[-2.56472,51.49613],[-2.56479,51.49552],[-2.56224,51.49529],[-2.56159,51.49585],[-2.56122,51.49561],[-2.56051,51.49591],[-2.56008,51.49644],[-2.55466,51.49635],[-2.55616,51.49406],[-2.55535,51.49269],[-2.5516,51.49223],[-2.54217,51.49295],[-2.54254,51.49455],[-2.54174,51.49574],[-2.53895,51.495],[-2.53873,51.49519],[-2.5377,51.49707],[-2.53433,51.49674],[-2.53174,51.4957],[-2.53029,51.49637],[-2.52935,51.49621],[-2.52775,51.49492],[-2.52856,51.49409],[-2.52794,51.49382],[-2.52747,51.49265],[-2.52533,51.49323],[-2.52334,51.49244],[-2.52069,51.49258],[-2.51804,51.49298],[-2.51587,51.49387],[-2.51532,51.49307],[-2.51597,51.49257],[-2.511,51.48999],[-2.51139,51.48929],[-2.5168,51.48515],[-2.51513,51.48176],[-2.51524,51.48147],[-2.51148,51.47483],[-2.51107,51.47285],[-2.51084,51.47159],[-2.51151,51.47023],[-2.51261,51.4704],[-2.51276,51.47009],[-2.51292,51.46905],[-2.51229,51.46861],[-2.51289,51.46717],[-2.51325,51.46566],[-2.5114,51.46521],[-2.51225,51.46233],[-2.51339,51.46208],[-2.51314,51.46163],[-2.51426,51.46144],[-2.51536,51.45993],[-2.51623,51.46],[-2.51846,51.45908],[-2.5186,51.45817],[-2.51921,51.45757],[-2.5188,51.45632],[-2.51846,51.45566],[-2.51859,51.45427],[-2.51918,51.45373],[-2.51894,51.45261],[-2.52228,51.4498],[-2.52513,51.44897],[-2.52612,51.44914],[-2.52723,51.44866],[-2.52993,51.44823],[-2.53167,51.44644],[-2.53477,51.44653],[-2.53561,51.44734],[-2.53768,51.44701],[-2.53912,51.44629],[-2.53922,51.44555],[-2.53806,51.44482],[-2.5361,51.44472],[-2.53078,51.44559],[-2.52832,51.44495],[-2.52675,51.44386],[-2.52645,51.44256],[-2.52704,51.43625],[-2.52536,51.43412],[-2.52354,51.43261],[-2.52166,51.43172],[-2.51699,51.43082],[-2.51344,51.42963],[-2.5107,51.42927],[-2.51046,51.42878],[-2.52194,51.43145],[-2.524,51.43255],[-2.52629,51.43478],[-2.52789,51.43383],[-2.52668,51.43387],[-2.52546,51.43294],[-2.52739,51.4315],[-2.52375,51.42992],[-2.52384,51.42827],[-2.52303,51.42563],[-2.52684,51.42574],[-2.5293,51.42471],[-2.53131,51.42331],[-2.53122,51.42242],[-2.52925,51.42128],[-2.52946,51.42092],[-2.53261,51.41937],[-2.53446,51.41749],[-2.53327,51.41716],[-2.53352,51.41661],[-2.53434,51.41666],[-2.53421,51.41471],[-2.53482,51.41412],[-2.5345,51.41385],[-2.53551,51.41271],[-2.53693,51.41202],[-2.53601,51.41114],[-2.5386,51.41071],[-2.54094,51.40955],[-2.54232,51.40875],[-2.54232,51.40807],[-2.54334,51.40741],[-2.54507,51.40815],[-2.54543,51.40864],[-2.54748,51.40906],[-2.54885,51.40882],[-2.54902,51.40928],[-2.55291,51.40909],[-2.55315,51.40961],[-2.55586,51.40928],[-2.5562,51.40885],[-2.55609,51.41128],[-2.55967,51.41124],[-2.55956,51.41164],[-2.56087,51.41172],[-2.56184,51.40993],[-2.56314,51.4086],[-2.56225,51.40832],[-2.56318,51.40747],[-2.56435,51.40704],[-2.56436,51.40639],[-2.56538,51.40601],[-2.56473,51.40513],[-2.56684,51.40474],[-2.5666,51.40434],[-2.56759,51.40402],[-2.56717,51.40365],[-2.56757,51.40332],[-2.5665,51.40278],[-2.5671,51.40251],[-2.56757,51.40135],[-2.56823,51.40137],[-2.57075,51.39937],[-2.57183,51.39962],[-2.57199,51.40043],[-2.57345,51.40087],[-2.57405,51.40029],[-2.57635,51.40112],[-2.5781,51.39936],[-2.58201,51.40089],[-2.583,51.39968],[-2.58377,51.39976],[-2.58385,51.4004],[-2.5844,51.40043],[-2.58441,51.40005],[-2.58519,51.40012],[-2.5851,51.39952],[-2.58612,51.39944],[-2.58778,51.39859],[-2.58993,51.39817],[-2.59013,51.39755],[-2.59219,51.39819],[-2.59184,51.39767],[-2.59255,51.39725],[-2.59351,51.39798],[-2.59407,51.39769],[-2.59573,51.39793],[-2.59757,51.39901],[-2.59705,51.40016],[-2.59815,51.40008],[-2.60094,51.40022],[-2.601,51.39953],[-2.60279,51.39882],[-2.60429,51.39938],[-2.60487,51.40044],[-2.6065,51.40139],[-2.60722,51.40098],[-2.60842,51.40136],[-2.60889,51.40114],[-2.6116,51.40117],[-2.61249,51.40135],[-2.61234,51.40227],[-2.61371,51.4027],[-2.61407,51.40235],[-2.61747,51.4024],[-2.61736,51.40175],[-2.61916,51.40194],[-2.6191,51.40391],[-2.61966,51.40438],[-2.62193,51.40432],[-2.62232,51.40371],[-2.62323,51.40413],[-2.62593,51.40382],[-2.62581,51.40315],[-2.62737,51.40252],[-2.62796,51.40186],[-2.62959,51.40229],[-2.63047,51.40211],[-2.63325,51.40344],[-2.63315,51.40528],[-2.6349,51.40601],[-2.63547,51.40698],[-2.63327,51.40747],[-2.63169,51.4085],[-2.63088,51.41011],[-2.63235,51.41032],[-2.63112,51.41166],[-2.62979,51.41472],[-2.62912,51.41472],[-2.62874,51.416],[-2.63123,51.41595],[-2.63252,51.41757],[-2.63061,51.41871],[-2.63246,51.42035],[-2.6346,51.42105],[-2.63482,51.42156],[-2.63632,51.42214],[-2.63709,51.4232],[-2.63404,51.42584],[-2.63393,51.42749],[-2.63347,51.43027],[-2.6335,51.43581],[-2.62952,51.43737],[-2.63052,51.43823],[-2.63001,51.43849],[-2.63012,51.43919],[-2.63038,51.43961],[-2.63423,51.43928],[-2.63635,51.43954],[-2.64009,51.44044],[-2.6399,51.44136],[-2.63897,51.44187],[-2.63797,51.44198],[-2.63663,51.44322],[-2.63684,51.44427],[-2.63559,51.44492],[-2.63562,51.4453],[-2.63309,51.44724],[-2.62966,51.44614],[-2.627,51.44667],[-2.62643,51.44835],[-2.6258,51.44875],[-2.62655,51.45037],[-2.62621,51.45036],[-2.6251,51.44744],[-2.62394,51.44666],[-2.62159,51.44561],[-2.61921,51.44537],[-2.60555,51.44647],[-2.59789,51.44554],[-2.59264,51.44577],[-2.58752,51.445],[-2.5848,51.44572],[-2.58167,51.44751],[-2.58012,51.44799],[-2.5784,51.44778],[-2.57739,51.44718],[-2.57782,51.44473],[-2.57717,51.44402],[-2.57326,51.44311],[-2.57085,51.44284],[-2.5667,51.44417],[-2.56064,51.44502],[-2.55784,51.44638],[-2.5576,51.44717],[-2.55859,51.44873],[-2.55753,51.44954],[-2.55395,51.45106],[-2.55526,51.45094],[-2.55892,51.44925],[-2.55919,51.44826],[-2.55832,51.44674],[-2.5606,51.44544],[-2.56243,51.44493],[-2.5668,51.44452],[-2.57107,51.44321],[-2.5767,51.44416],[-2.57719,51.44497],[-2.57687,51.44728],[-2.57836,51.4483],[-2.58063,51.44825],[-2.58214,51.44766],[-2.58558,51.44578],[-2.58781,51.44537],[-2.59329,51.44619],[-2.5963,51.44599],[-2.59653,51.44633],[-2.59869,51.44595],[-2.60444,51.44674],[-2.60738,51.44677],[-2.61744,51.4459],[-2.6209,51.44611],[-2.62374,51.44742],[-2.62427,51.44829],[-2.62312,51.44831],[-2.6235,51.44853],[-2.62317,51.44868],[-2.62429,51.44903],[-2.62444,51.44948],[-2.62399,51.44956],[-2.62518,51.45036],[-2.62658,51.45255],[-2.62708,51.45476],[-2.62991,51.45775],[-2.63027,51.45919],[-2.63004,51.46072],[-2.63291,51.46739],[-2.63583,51.46896],[-2.6439,51.47077],[-2.64869,51.47371],[-2.64981,51.47504],[-2.64941,51.47704],[-2.65078,51.4798],[-2.64834,51.48086],[-2.64949,51.48105],[-2.65014,51.48065],[-2.65125,51.48051],[-2.65222,51.48157],[-2.65614,51.48407],[-2.65649,51.48488],[-2.65719,51.48505],[-2.65966,51.48712],[-2.66191,51.48786],[-2.66373,51.48786],[-2.66605,51.48704],[-2.6679,51.48401],[-2.67185,51.48186],[-2.67416,51.481],[-2.6761,51.48069],[-2.67764,51.48073],[-2.67974,51.48125],[-2.68578,51.48458],[-2.69239,51.48997],[-2.69663,51.49278],[-2.69746,51.49418],[-2.69889,51.49431],[-2.70248,51.49585],[-2.70873,51.49773],[-2.70956,51.4987],[-2.71009,51.50222],[-2.71063,51.50282],[-2.71456,51.50521],[-2.71836,51.50622],[-2.71467,51.50568],[-2.7137,51.50593],[-2.71775,51.50774],[-2.71822,51.50824],[-2.71631,51.50713],[-2.71557,51.5073],[-2.71263,51.50983],[-2.71178,51.51003],[-2.71157,51.51089],[-2.71011,51.51257],[-2.70673,51.51471],[-2.70562,51.5151],[-2.70286,51.51533],[-2.70217,51.5162],[-2.70029,51.51734],[-2.69887,51.51919],[-2.69539,51.52246],[-2.69521,51.52246],[-2.68798,51.52942],[-2.68707,51.52939],[-2.68654,51.53088],[-2.68257,51.5348],[-2.68108,51.53571],[-2.68102,51.53628],[-2.67933,51.53804],[-2.67884,51.5391],[-2.67381,51.54443],[-2.66369,51.537],[-2.66448,51.53601],[-2.66374,51.53487],[-2.66573,51.53368],[-2.66461,51.53153],[-2.66542,51.53097]]]},"properties":{"name":"Bristol"}}]}